[{"OBJECT_NAME":"PE2_FLT2  (TYVAK-0262)","OBJECT_ID":"2024-043G","EPOCH":"2026-03-09T22:11:35.814912","MEAN_MOTION":14.96566721,"ECCENTRICITY":0.00068512,"INCLINATION":97.8241,"RA_OF_ASC_NODE":199.4452,"ARG_OF_PERICENTER":28.1235,"MEAN_ANOMALY":332.0355,"EPHEMERIS_TYPE":0,"CLASSIFICATION_TYPE":"U","NORAD_CAT_ID":59104,"ELEMENT_SET_NO":999,"REV_AT_EPOCH":10980,"BSTAR":0.00036572059,"MEAN_MOTION_DOT":4.105e-5,"MEAN_MOTION_DDOT":0},{"OBJECT_NAME":"COSMOS 2251 DEB","OBJECT_ID":"1993-036AGL","EPOCH":"2026-03-09T14:26:26.254464","MEAN_MOTION":14.99089752,"ECCENTRICITY":0.0026997,"INCLINATION":74.0375,"RA_OF_ASC_NODE":36.8586,"ARG_OF_PERICENTER":98.2741,"MEAN_ANOMALY":23.5602,"EPHEMERIS_TYPE":0,"CLASSIFICATION_TYPE":"U","NORAD_CAT_ID":35023,"ELEMENT_SET_NO":999,"REV_AT_EPOCH":89579,"BSTAR":0.0019164,"MEAN_MOTION_DOT":0.00023496,"MEAN_MOTION_DDOT":0}]
